{
    "links": {
        "self": "http://www.neowsapp.com/rest/v1/neo/3748336?api_key=iIulBulltgU6a56xZRHN4H3l9WmuAYTsLGpBGhQ2"
    },
    "id": "3748336",
    "neo_reference_id": "3748336",
    "name": "(2016 FV6)",
    "designation": "2016 FV6",
    "nasa_jpl_url": "http://ssd.jpl.nasa.gov/sbdb.cgi?sstr=3748336",
    "absolute_magnitude_h": 24.2,
    "estimated_diameter": {
        "kilometers": {
            "estimated_diameter_min": 0.0384197891,
            "estimated_diameter_max": 0.0859092601
        },
        "meters": {
            "estimated_diameter_min": 38.4197891064,
            "estimated_diameter_max": 85.9092601232
        },
        "miles": {
            "estimated_diameter_min": 0.0238729428,
            "estimated_diameter_max": 0.0533815229
        },
        "feet": {
            "estimated_diameter_min": 126.0491808919,
            "estimated_diameter_max": 281.8545369825
        }
    },
    "is_potentially_hazardous_asteroid": false,
    "close_approach_data": [
        {
            "close_approach_date": "1985-04-13",
            "close_approach_date_full": "1985-Apr-13 02:10",
            "epoch_date_close_approach": 482206200000,
            "relative_velocity": {
                "kilometers_per_second": "14.3097484905",
                "kilometers_per_hour": "51515.0945657176",
                "miles_per_hour": "32009.4763983482"
            },
            "miss_distance": {
                "astronomical": "0.0868802734",
                "lunar": "33.7964263526",
                "kilometers": "12997103.845657658",
                "miles": "8076025.8393973604"
            },
            "orbiting_body": "Earth"
        },
        {
            "close_approach_date": "1985-06-13",
            "close_approach_date_full": "1985-Jun-13 18:42",
            "epoch_date_close_approach": 487536120000,
            "relative_velocity": {
                "kilometers_per_second": "11.3262648091",
                "kilometers_per_hour": "40774.5533127827",
                "miles_per_hour": "25335.7217514899"
            },
            "miss_distance": {
                "astronomical": "0.0702241937",
                "lunar": "27.3172113493",
                "kilometers": "10505389.799987419",
                "miles": "6527746.5260836222"
            },
            "orbiting_body": "Venus"
        },
        {
            "close_approach_date": "2016-04-10",
            "close_approach_date_full": "2016-Apr-10 08:14",
            "epoch_date_close_approach": 1460276040000,
            "relative_velocity": {
                "kilometers_per_second": "15.4253355757",
                "kilometers_per_hour": "55531.2080724779",
                "miles_per_hour": "34504.9331492572"
            },
            "miss_distance": {
                "astronomical": "0.0501911201",
                "lunar": "19.5243457189",
                "kilometers": "7508484.659874187",
                "miles": "4665556.0229383006"
            },
            "orbiting_body": "Earth"
        },
        {
            "close_approach_date": "2045-10-01",
            "close_approach_date_full": "2045-Oct-01 17:49",
            "epoch_date_close_approach": 2390492940000,
            "relative_velocity": {
                "kilometers_per_second": "15.2561221583",
                "kilometers_per_hour": "54922.0397697299",
                "miles_per_hour": "34126.419655808"
            },
            "miss_distance": {
                "astronomical": "0.0561635456",
                "lunar": "21.8476192384",
                "kilometers": "8401946.793407872",
                "miles": "5220727.6490657536"
            },
            "orbiting_body": "Earth"
        }
    ],
    "orbital_data": {
        "orbit_id": "8",
        "orbit_determination_date": "2017-04-06 08:27:16",
        "first_observation_date": "2016-03-28",
        "last_observation_date": "2016-04-10",
        "data_arc_in_days": 13,
        "observations_used": 43,
        "orbit_uncertainty": "8",
        "minimum_orbit_intersection": ".0199514",
        "jupiter_tisserand_invariant": "4.376",
        "epoch_osculation": "2457478.5",
        "eccentricity": ".5559680565966841",
        "semi_major_axis": "1.492530826586803",
        "inclination": "1.689881256302768",
        "ascending_node_longitude": "240.2423178607969",
        "orbital_period": "666.0140508178112",
        "perihelion_distance": ".6627313635186954",
        "perihelion_argument": "44.37157032896877",
        "aphelion_distance": "2.32233028965491",
        "perihelion_time": "2457540.363377000282",
        "mean_anomaly": "326.561042229132",
        "mean_motion": ".5405291368221875",
        "equinox": "J2000",
        "orbit_class": {
            "orbit_class_type": "APO",
            "orbit_class_description": "Near-Earth asteroid orbits which cross the Earth’s orbit similar to that of 1862 Apollo",
            "orbit_class_range": "a (semi-major axis) > 1.0 AU; q (perihelion) < 1.017 AU"
        }
    },
    "is_sentry_object": false
}